STARLINK-1979           
1 47577U 21009AF  21065.91667824 -.00000083  00000-0  49353-5 0  9990
2 47577  53.0530 333.6122 0001535  45.0051 230.4937 15.62748700  5448
STARLINK-1980           
1 47578U 21009AG  21065.91667824 -.00061913  00000-0 -67385-3 0  9994
2 47578  53.0531 333.6144 0001429  48.0349 226.8079 15.62814857  5442
STARLINK-1981           
1 47579U 21009AH  21065.91667824 -.00093427  00000-0 -10225-2 0  9990
2 47579  53.0535 333.6127 0001297  37.3040 238.7618 15.62847007  5444
STARLINK-1982           
1 47580U 21009AJ  21065.91667824  .00008119  00000-0  94281-4 0  9990
2 47580  53.0534 333.6208 0001459  42.8736 231.3048 15.62789199  5441
STARLINK-1984           
1 47581U 21009AK  21065.91667824 -.00034605  00000-0 -37315-3 0  9996
2 47581  53.0535 333.5801 0001752  57.2137 232.3048 15.62789445  5447
STARLINK-1986           
1 47582U 21009AL  21065.58335648  .00079349  00000-0  86391-3 0  9996
2 47582  53.0531 335.2652 0001761  58.7971 133.3082 15.62755086  1773
STARLINK-1987           
1 47583U 21009AM  21065.58335648  .00049812  00000-0  54649-3 0  9990
2 47583  53.0535 335.2486 0001201  53.0530 142.8672 15.62754510  1772
STARLINK-1988           
1 47584U 21009AN  21065.58335648  .00028791  00000-0  31911-3 0  9991
2 47584  53.0536 335.2180 0001381  45.3741 165.8430 15.62756896  1778
STARLINK-1989           
1 47585U 21009AP  21065.91667824  .00020274  00000-0  22657-3 0  9998
2 47585  53.0537 333.6419 0001408  53.0162 214.8794 15.62767270  5444
STARLINK-1990           
1 47586U 21009AQ  21065.58335648 -.00949390  00000-0 -19261-1 0  9994
2 47586  53.0508 335.7288 0001178  63.4951 294.5585 15.48334086  1779
STARLINK-1991           
1 47587U 21009AR  21065.58335648  .00095630  00000-0  10389-2 0  9995
2 47587  53.0533 335.2287 0001475  60.3895 144.4881 15.62730389  1779
STARLINK-1993           
1 47588U 21009AS  21065.58335648  .00068150  00000-0  74438-3 0  9999
2 47588  53.0533 335.2462 0001517  43.5492 153.0555 15.62736242  1776
STARLINK-1994           
1 47589U 21009AT  21065.91667824  .00007870  00000-0  91567-4 0  9996
2 47589  53.0531 333.6355 0001525  44.8055 224.9507 15.62791993  5443
STARLINK-1995           
1 47590U 21009AU  21065.58335648 -.01084230  00000-0 -20509-1 0  9990
2 47590  53.0536 335.5654 0001288  60.0578   9.8858 15.50661394  1778
STARLINK-1996           
1 47591U 21009AV  21065.91667824 -.00103353  00000-0 -11327-2 0  9998
2 47591  53.0536 333.6244 0001370  43.2717 227.0746 15.62856650  5445
STARLINK-1997           
1 47592U 21009AW  21065.58335648 -.00946585  00000-0 -20489-1 0  9998
2 47592  53.0528 335.6644 0001193  66.3833 246.8021 15.46474266  1768
STARLINK-1998           
1 47593U 21009AX  21065.58335648 -.00949235  00000-0 -19388-1 0  9990
2 47593  53.0534 335.7443 0001225  59.8037 292.5348 15.48141943  1779
STARLINK-1999           
1 47594U 21009AY  21065.58335648 -.00946416  00000-0 -20626-1 0  9996
2 47594  53.0532 335.6697 0001216  63.5708 243.3825 15.46276499  1761
STARLINK-2000           
1 47595U 21009AZ  21065.58335648 -.00947572  00000-0 -20095-1 0  9991
2 47595  53.0530 335.6620 0001210  62.7270 268.6552 15.47064608  1771
STARLINK-2001           
1 47596U 21009BA  21065.58335648 -.00947531  00000-0 -20237-1 0  9995
2 47596  53.0525 335.6550 0001299  54.7122 270.7757 15.46860603  1760
STARLINK-2002           
1 47597U 21009BB  21065.58335648 -.00947866  00000-0 -19975-1 0  9994
2 47597  53.0532 335.7002 0001166  66.0269 271.5956 15.47246208  1774
STARLINK-2003           
1 47598U 21009BC  21065.91667824 -.00033858  00000-0 -36552-3 0  9995
2 47598  53.0537 333.5969 0001449  56.6141 230.4440 15.62749623  5442
STARLINK-2004           
1 47599U 21009BD  21065.58335648 -.00010700  00000-0 -11110-3 0  9999
2 47599  53.0533 335.2070 0001285  52.7692 161.0870 15.62770324  1777
STARLINK-2005           
1 47600U 21009BE  21065.58335648  .00034817  00000-0  38412-3 0  9999
2 47600  53.0533 335.2150 0001241  54.5810 157.8991 15.62775675  1774
STARLINK-2006           
1 47601U 21009BF  21065.91667824 -.00076936  00000-0 -84000-3 0  9995
2 47601  53.0534 333.5836 0001502  53.3602 234.8234 15.62824558  5443
STARLINK-2007           
1 47602U 21009BG  21065.91667824 -.00092733  00000-0 -10152-2 0  9995
2 47602  53.0533 333.6039 0001501  50.8798 233.4870 15.62835638  5448
STARLINK-2008           
1 47603U 21009BH  21065.58335648 -.00944934  00000-0 -21294-1 0  9992
2 47603  53.0529 335.7356 0001310  60.6389 214.0100 15.45304306  5380
STARLINK-2021           
1 47604U 21009BJ  21065.91667824 -.00033075  00000-0 -35614-3 0  9992
2 47604  53.0533 333.6037 0001676  45.5356 237.5685 15.62803229  5442
STARLINK-2023           
1 47605U 21009BK  21065.91667824 -.00096824  00000-0 -10615-2 0  9997
2 47605  53.0534 333.5978 0001456  44.8585 238.9422 15.62818539  5443
STARLINK-2024           
1 47606U 21009BL  21065.91667824 -.00033407  00000-0 -35992-3 0  9992
2 47606  53.0535 333.5995 0001485  46.0496 236.4304 15.62794667  5448
STARLINK-2025           
1 47607U 21009BM  21065.58335648  .00049928  00000-0  54807-3 0  9991
2 47607  53.0534 335.2288 0001494  49.2471 160.7130 15.62738865  5398
TJS-6                   
1 47613U 21010A   21065.92881956  .00000026  00000-0  00000+0 0  9994
2 47613   0.9631 282.4620 0002251  67.9389 327.3635  1.00271489   492
FLOCK 4S-48             
1 47617U 21006EJ  21065.41653245  .00000904  00000-0  54901-4 0  9994
2 47617  97.5051 128.4450 0013678  88.2043 272.0754 15.12923960  7448
PROGRESS-MS 16          
1 47618U 21011A   21065.59387550  .00001540  00000-0  36065-4 0  9991
2 47618  51.6452 130.1583 0003369  76.5848  71.3110 15.49045139272691
STARLINK-1528           
1 47620U 21012A   21065.83335648 -.00029194  00000-0 -31384-3 0  9998
2 47620  53.0503   9.5906 0001216 102.5854   0.3971 15.62778352  3707
STARLINK-1609           
1 47621U 21012B   21065.58335648 -.00074840  00000-0 -81715-3 0  9992
2 47621  53.0505  10.8099 0001020  86.0168  54.1024 15.62813140  1771
STARLINK-1645           
1 47622U 21012C   21065.83335648  .00065889  00000-0  71985-3 0  9990
2 47622  53.0506   9.5846 0000973  95.0202  12.9933 15.62744616  3700
STARLINK-1655           
1 47623U 21012D   21065.83335648 -.01184516  00000-0 -77449-2 0  9993
2 47623  53.0482   8.2306 0001120  62.0978 352.5508 15.77835933  3722
STARLINK-1669           
1 47624U 21012E   21065.83335648 -.01183948  00000-0 -77648-2 0  9993
2 47624  53.0477   8.2575 0000995 102.0424 300.2454 15.77768521  3723
STARLINK-1704           
1 47625U 21012F   21065.58335648 -.00050262  00000-0 -54557-3 0  9992
2 47625  53.0504  10.8118 0000950  84.2868  55.1555 15.62797099  1778
STARLINK-1761           
1 47626U 21012G   21065.83335648 -.00041089  00000-0 -44466-3 0  9996
2 47626  53.0505   9.5865 0000942  89.3449  21.9146 15.62783995  3708
STARLINK-1972           
1 47627U 21012H   21065.83335648 -.01210795  00000-0 -80382-2 0  9996
2 47627  53.0480   8.2173 0006135 329.0460  91.7426 15.77488815  3723
STARLINK-1973           
1 47628U 21012J   21065.83335648  .00032563  00000-0  36041-3 0  9993
2 47628  53.0506   9.5731 0001248  91.1557  27.0602 15.62726627  3707
STARLINK-1974           
1 47629U 21012K   21065.58335648 -.01161282  00000-0 -74823-2 0  9999
2 47629  53.0486   9.4630 0001252  57.0534  24.0966 15.78104964  1780
STARLINK-1983           
1 47630U 21012L   21065.58335648 -.01111874  00000-0 -70191-2 0  9997
2 47630  53.0480   9.4985 0001049 106.1227 318.8181 15.78443572  1782
STARLINK-1985           
1 47631U 21012M   21065.58335648 -.01069473  00000-0 -67356-2 0  9994
2 47631  53.0486   9.4784 0001130 101.3362 332.6065 15.78398217  1784
STARLINK-1992           
1 47632U 21012N   21065.58335648 -.01127145  00000-0 -72555-2 0  9993
2 47632  53.0485   9.4633 0001116  88.3838 352.3530 15.78048542  1782
STARLINK-2009           
1 47633U 21012P   21065.58335648 -.00036462  00000-0 -39387-3 0  9991
2 47633  53.0507  10.8038 0000826  81.3714  66.3436 15.62773462  1771
STARLINK-2010           
1 47634U 21012Q   21065.83335648 -.00036852  00000-0 -39804-3 0  9997
2 47634  53.0501   9.5962 0001393  91.2541   7.2774 15.62779838  3702
STARLINK-2012           
1 47635U 21012R   21065.83335648 -.01182448  00000-0 -79442-2 0  9993
2 47635  53.0486   8.2094 0001066 110.1545 314.5219 15.77229560  3727
STARLINK-2013           
1 47636U 21012S   21065.83335648 -.01176779  00000-0 -77085-2 0  9995
2 47636  53.0483   8.2590 0001004  96.7117 304.8407 15.77778340  3728
STARLINK-2014           
1 47637U 21012T   21065.58335648 -.01121364  00000-0 -70936-2 0  9996
2 47637  53.0485   9.4940 0001089  94.0573 332.5270 15.78419551  1780
STARLINK-2015           
1 47638U 21012U   21065.58335648 -.01151757  00000-0 -73089-2 0  9998
2 47638  53.0483   9.4765 0001122  80.7094 354.3926 15.78419342  1780
STARLINK-2016           
1 47639U 21012V   21065.58335648 -.01128830  00000-0 -71429-2 0  9991
2 47639  53.0487   9.5131 0001081  91.1112 326.4784 15.78430297  1788
STARLINK-2018           
1 47640U 21012W   21065.58335648  .00031501  00000-0  34778-3 0  9995
2 47640  53.0502  10.8164 0000886  83.4828  49.4095 15.62808413  1777
STARLINK-2019           
1 47641U 21012X   21065.58335648 -.01172564  00000-0 -75439-2 0  9992
2 47641  53.0480   9.4617 0001060  95.8133 345.6156 15.78165379  1785
STARLINK-2020           
1 47642U 21012Y   21065.83335648  .00066491  00000-0  72670-3 0  9994
2 47642  53.0508   9.5696 0001133  94.8573  25.2822 15.62730979  3705
STARLINK-2022           
1 47643U 21012Z   21065.58335648 -.01117672  00000-0 -70656-2 0  9999
2 47643  53.0486   9.4916 0001107  92.4186 335.3833 15.78425414  1785
STARLINK-2026           
1 47644U 21012AA  21065.83335648  .00065577  00000-0  71649-3 0  9995
2 47644  53.0506   9.5830 0001128  84.6506  29.1095 15.62744550  3707
